{"type": "FeatureCollection", "features": [ {"type": "Feature", "properties": {"norad_id": 30529, "name": "FENGYUN 1C DEB", "group": "fengyun-1c-debris", "lat": -81.03583104059122, "lon": 17.16919983611056, "alt_km": 876.5015956483421, "timestamp": "2025-12-12T11:38:31.688961+00:00", "meta": {"OBJECT_NAME": "FENGYUN 1C DEB", "OBJECT_ID": "1999-025AJT", "EPOCH": "2025-12-06T17:47:03.624288", "MEAN_MOTION": 13.71588709, "ECCENTRICITY": 0.02311835, "INCLINATION": 98.4889, "RA_OF_ASC_NODE": 263.2998, "ARG_OF_PERICENTER": 238.5675, "MEAN_ANOMALY": 119.2686, "EPHEMERIS_TYPE": 0, "CLASSIFICATION_TYPE": "U", "NORAD_CAT_ID": 30529, "ELEMENT_SET_NO": 999, "REV_AT_EPOCH": 93926, "BSTAR": 0.001633705, "MEAN_MOTION_DOT": 1.743e-05, "MEAN_MOTION_DDOT": 0}, "tle": {"line1": "1 30529U 99025AJT 25340.74101417  .00001743  00000+0  16337-2 0  9999", "line2": "2 30529  98.4889 263.2998 0231183 238.5675 119.2686 13.71588709939261"}}, "geometry": {"type": "Point", "coordinates": [17.16919983611056, -81.03583104059122]}}, {"type": "Feature", "properties": {"norad_id": 30530, "name": "FENGYUN 1C DEB", "group": "fengyun-1c-debris", "lat": -0.9467217292392512, "lon": -155.27832649976605, "alt_km": 719.7674104451135, "timestamp": "2025-12-12T11:38:31.688971+00:00", "meta": {"OBJECT_NAME": "FENGYUN 1C DEB", "OBJECT_ID": "1999-025AJU", "EPOCH": "2025-12-11T20:01:40.888128", "MEAN_MOTION": 14.36781063, "ECCENTRICITY": 0.0100177, "INCLINATION": 98.3966, "RA_OF_ASC_NODE": 24.2269, "ARG_OF_PERICENTER": 139.4787, "MEAN_ANOMALY": 277.4091, "EPHEMERIS_TYPE": 0, "CLASSIFICATION_TYPE": "U", "NORAD_CAT_ID": 30530, "ELEMENT_SET_NO": 999, "REV_AT_EPOCH": 98772, "BSTAR": 0.0003709, "MEAN_MOTION_DOT": 1.116e-05, "MEAN_MOTION_DDOT": 0}, "tle": {"line1": "1 30530U 99025AJU 25345.83450102  .00001116  00000+0  37090-3 0  9998", "line2": "2 30530  98.3966  24.2269 0100177 139.4787 277.4091 14.36781063987726"}}, "geometry": {"type": "Point", "coordinates": [-155.27832649976605, -0.9467217292392512]}}, {"type": "Feature", "properties": {"norad_id": 30531, "name": "FENGYUN 1C DEB", "group": "fengyun-1c-debris", "lat": -14.460727685287448, "lon": -10.710781472020585, "alt_km": 672.4706647788244, "timestamp": "2025-12-12T11:38:31.688981+00:00", "meta": {"OBJECT_NAME": "FENGYUN 1C DEB", "OBJECT_ID": "1999-025AJV", "EPOCH": "2025-12-12T00:53:51.112032", "MEAN_MOTION": 14.61802208, "ECCENTRICITY": 0.0027945, "INCLINATION": 102.3107, "RA_OF_ASC_NODE": 171.8538, "ARG_OF_PERICENTER": 208.031, "MEAN_ANOMALY": 151.9371, "EPHEMERIS_TYPE": 0, "CLASSIFICATION_TYPE": "U", "NORAD_CAT_ID": 30531, "ELEMENT_SET_NO": 999, "REV_AT_EPOCH": 97685, "BSTAR": 0.0061764, "MEAN_MOTION_DOT": 0.00031076, "MEAN_MOTION_DDOT": 0}, "tle": {"line1": "1 30531U 99025AJV 25346.03739713  .00031076  00000+0  61764-2 0  9992", "line2": "2 30531 102.3107 171.8538 0027945 208.0310 151.9371 14.61802208976856"}}, "geometry": {"type": "Point", "coordinates": [-10.710781472020585, -14.460727685287448]}}, {"type": "Feature", "properties": {"norad_id": 30532, "name": "FENGYUN 1C DEB", "group": "fengyun-1c-debris", "lat": -65.51448197621858, "lon": -163.82116034129618, "alt_km": 479.7118672514489, "timestamp": "2025-12-12T11:38:31.688991+00:00", "meta": {"OBJECT_NAME": "FENGYUN 1C DEB", "OBJECT_ID": "1999-025AJW", "EPOCH": "2025-12-11T01:29:24.724608", "MEAN_MOTION": 15.24304611, "ECCENTRICITY": 0.00253028, "INCLINATION": 96.963, "RA_OF_ASC_NODE": 30.4217, "ARG_OF_PERICENTER": 263.2468, "MEAN_ANOMALY": 96.5891, "EPHEMERIS_TYPE": 0, "CLASSIFICATION_TYPE": "U", "NORAD_CAT_ID": 30532, "ELEMENT_SET_NO": 999, "REV_AT_EPOCH": 97662, "BSTAR": 0.016538621, "MEAN_MOTION_DOT": 0.00430969, "MEAN_MOTION_DDOT": 0}, "tle": {"line1": "1 30532U 99025AJW 25345.06209172  .00430969  00000+0  16539-1 0  9999", "line2": "2 30532  96.9630  30.4217 0025302 263.2468  96.5891 15.24304611976623"}}, "geometry": {"type": "Point", "coordinates": [-163.82116034129618, -65.51448197621858]}}, {"type": "Feature", "properties": {"norad_id": 30533, "name": "FENGYUN 1C DEB", "group": "fengyun-1c-debris", "lat": 1.1367486734699055, "lon": -64.53843662769663, "alt_km": 664.5994484282555, "timestamp": "2025-12-12T11:38:31.689001+00:00", "meta": {"OBJECT_NAME": "FENGYUN 1C DEB", "OBJECT_ID": "1999-025AJX", "EPOCH": "2025-12-11T22:09:51.261408", "MEAN_MOTION": 14.53763838, "ECCENTRICITY": 0.0082636, "INCLINATION": 98.8336, "RA_OF_ASC_NODE": 114.6927, "ARG_OF_PERICENTER": 151.7316, "MEAN_ANOMALY": 329.1726, "EPHEMERIS_TYPE": 0, "CLASSIFICATION_TYPE": "U", "NORAD_CAT_ID": 30533, "ELEMENT_SET_NO": 999, "REV_AT_EPOCH": 97809, "BSTAR": 0.0049093, "MEAN_MOTION_DOT": 0.00021554, "MEAN_MOTION_DDOT": 0}, "tle": {"line1": "1 30533U 99025AJX 25345.92350997  .00021554  00000+0  49093-2 0  9995", "line2": "2 30533  98.8336 114.6927 0082636 151.7316 329.1726 14.53763838978093"}}, "geometry": {"type": "Point", "coordinates": [-64.53843662769663, 1.1367486734699055]}}, {"type": "Feature", "properties": {"norad_id": 30539, "name": "FENGYUN 1C DEB", "group": "fengyun-1c-debris", "lat": -78.12979811291302, "lon": 98.86614272250878, "alt_km": 636.0933921155802, "timestamp": "2025-12-12T11:38:31.689011+00:00", "meta": {"OBJECT_NAME": "FENGYUN 1C DEB", "OBJECT_ID": "1999-025AKD", "EPOCH": "2025-12-11T21:14:02.598720", "MEAN_MOTION": 14.55392865, "ECCENTRICITY": 0.011548, "INCLINATION": 98.8802, "RA_OF_ASC_NODE": 326.2865, "ARG_OF_PERICENTER": 278.4262, "MEAN_ANOMALY": 80.3857, "EPHEMERIS_TYPE": 0, "CLASSIFICATION_TYPE": "U", "NORAD_CAT_ID": 30539, "ELEMENT_SET_NO": 999, "REV_AT_EPOCH": 99353, "BSTAR": 0.0011191, "MEAN_MOTION_DOT": 5.261e-05, "MEAN_MOTION_DDOT": 0}, "tle": {"line1": "1 30539U 99025AKD 25345.88475230  .00005261  00000+0  11191-2 0  9999", "line2": "2 30539  98.8802 326.2865 0115480 278.4262  80.3857 14.55392865993537"}}, "geometry": {"type": "Point", "coordinates": [98.86614272250878, -78.12979811291302]}}, {"type": "Feature", "properties": {"norad_id": 30540, "name": "FENGYUN 1C DEB", "group": "fengyun-1c-debris", "lat": 46.5474055269512, "lon": -75.68234898763644, "alt_km": 766.8617232746465, "timestamp": "2025-12-12T11:38:31.689022+00:00", "meta": {"OBJECT_NAME": "FENGYUN 1C DEB", "OBJECT_ID": "1999-025AKE", "EPOCH": "2025-12-11T23:35:33.626976", "MEAN_MOTION": 14.3226582, "ECCENTRICITY": 0.0051627, "INCLINATION": 98.878, "RA_OF_ASC_NODE": 94.3077, "ARG_OF_PERICENTER": 64.6672, "MEAN_ANOMALY": 0.1743, "EPHEMERIS_TYPE": 0, "CLASSIFICATION_TYPE": "U", "NORAD_CAT_ID": 30540, "ELEMENT_SET_NO": 999, "REV_AT_EPOCH": 97275, "BSTAR": 0.0031153, "MEAN_MOTION_DOT": 8.492e-05, "MEAN_MOTION_DDOT": 0}, "tle": {"line1": "1 30540U 99025AKE 25345.98302809  .00008492  00000+0  31153-2 0  9992", "line2": "2 30540  98.8780  94.3077 0051627  64.6672   0.1743 14.32265820972754"}}, "geometry": {"type": "Point", "coordinates": [-75.68234898763644, 46.5474055269512]}}, {"type": "Feature", "properties": {"norad_id": 30541, "name": "FENGYUN 1C DEB", "group": "fengyun-1c-debris", "lat": 6.235388896312708, "lon": -146.01218249696828, "alt_km": 816.3867130519002, "timestamp": "2025-12-12T11:38:31.689032+00:00", "meta": {"OBJECT_NAME": "FENGYUN 1C DEB", "OBJECT_ID": "1999-025AKF", "EPOCH": "2025-12-12T02:23:37.184352", "MEAN_MOTION": 14.23046996, "ECCENTRICITY": 0.0018358, "INCLINATION": 98.6945, "RA_OF_ASC_NODE": 32.6494, "ARG_OF_PERICENTER": 87.7988, "MEAN_ANOMALY": 272.5292, "EPHEMERIS_TYPE": 0, "CLASSIFICATION_TYPE": "U", "NORAD_CAT_ID": 30541, "ELEMENT_SET_NO": 999, "REV_AT_EPOCH": 97318, "BSTAR": 0.0017417, "MEAN_MOTION_DOT": 3.891e-05, "MEAN_MOTION_DDOT": 0}, "tle": {"line1": "1 30541U 99025AKF 25346.09973593  .00003891  00000+0  17417-2 0  9995", "line2": "2 30541  98.6945  32.6494 0018358  87.7988 272.5292 14.23046996973187"}}, "geometry": {"type": "Point", "coordinates": [-146.01218249696828, 6.235388896312708]}}, {"type": "Feature", "properties": {"norad_id": 30542, "name": "FENGYUN 1C DEB", "group": "fengyun-1c-debris", "lat": 54.50396885668006, "lon": 2.7138533686709136, "alt_km": 861.1953812212623, "timestamp": "2025-12-12T11:38:31.689041+00:00", "meta": {"OBJECT_NAME": "FENGYUN 1C DEB", "OBJECT_ID": "1999-025AKG", "EPOCH": "2025-12-12T01:16:28.418016", "MEAN_MOTION": 14.06972939, "ECCENTRICITY": 0.0027527, "INCLINATION": 98.7872, "RA_OF_ASC_NODE": 14.82, "ARG_OF_PERICENTER": 336.2418, "MEAN_ANOMALY": 52.159, "EPHEMERIS_TYPE": 0, "CLASSIFICATION_TYPE": "U", "NORAD_CAT_ID": 30542, "ELEMENT_SET_NO": 999, "REV_AT_EPOCH": 96909, "BSTAR": 0.00014729, "MEAN_MOTION_DOT": 2.04e-06, "MEAN_MOTION_DDOT": 0}, "tle": {"line1": "1 30542U 99025AKG 25346.05310669  .00000204  00000+0  14729-3 0  9990", "line2": "2 30542  98.7872  14.8200 0027527 336.2418  52.1590 14.06972939969097"}}, "geometry": {"type": "Point", "coordinates": [2.7138533686709136, 54.50396885668006]}}, {"type": "Feature", "properties": {"norad_id": 30543, "name": "FENGYUN 1C DEB", "group": "fengyun-1c-debris", "lat": 44.533759895527545, "lon": -175.14066786735077, "alt_km": 886.1930811036245, "timestamp": "2025-12-12T11:38:31.689051+00:00", "meta": {"OBJECT_NAME": "FENGYUN 1C DEB", "OBJECT_ID": "1999-025AKH", "EPOCH": "2025-12-11T23:18:58.394016", "MEAN_MOTION": 14.03739658, "ECCENTRICITY": 0.0072441, "INCLINATION": 98.8332, "RA_OF_ASC_NODE": 355.5602, "ARG_OF_PERICENTER": 35.6937, "MEAN_ANOMALY": 24.2755, "EPHEMERIS_TYPE": 0, "CLASSIFICATION_TYPE": "U", "NORAD_CAT_ID": 30543, "ELEMENT_SET_NO": 999, "REV_AT_EPOCH": 96494, "BSTAR": 0.00053355, "MEAN_MOTION_DOT": 8.17e-06, "MEAN_MOTION_DDOT": 0}, "tle": {"line1": "1 30543U 99025AKH 25345.97150919  .00000817  00000+0  53355-3 0  9999", "line2": "2 30543  98.8332 355.5602 0072441  35.6937  24.2755 14.03739658964940"}}, "geometry": {"type": "Point", "coordinates": [-175.14066786735077, 44.533759895527545]}}]}